{
    "satellites": [
        {
            "name": "starlink368",
            "title": "Starlink-368 (G10-33)",
            "tle": [
                "1 68290C 26055AE  26085.88381944 -.00925330  00000+0 -15207-2 0   855",
                "2 68290  53.1590 251.5467 0000485  70.8784 345.9770 16.02915953    18"
            ],
            "stdMag": 5,
            "noradId": "68290",
            "intDes": null,
            "tleUrl": "http://celestrak.org/NORAD/elements/supplemental/sup-gp.php?FILE=starlink&FORMAT=tle",
            "launchDate": "2026-03-19T14:20:10.000Z",
            "active": true,
            "batch": [
                {
                    "noradId": "68290",
                    "tle": [
                        "1 68290C 26055AE  26085.88381944 -.00925330  00000+0 -15207-2 0   855",
                        "2 68290  53.1590 251.5467 0000485  70.8784 345.9770 16.02915953    18"
                    ]
                },
                {
                    "noradId": "68284",
                    "tle": [
                        "1 68284C 26055Y   26085.90881944 -.00847390  00000+0 -14664-2 0   851",
                        "2 68284  53.1591 251.4459 0000690  68.7663 118.9291 16.01999381    14"
                    ]
                },
                {
                    "noradId": "68287",
                    "tle": [
                        "1 68287C 26055AB  26085.85743056 -.00917230  00000+0 -15241-2 0   852",
                        "2 68287  53.1593 251.6912 0000677  64.3581 196.2642 16.02725593    13"
                    ]
                },
                {
                    "noradId": "68289",
                    "tle": [
                        "1 68289C 26055AD  26085.94770833 -.00987460  00000+0 -16456-2 0   858",
                        "2 68289  53.1591 251.2191 0000661  75.4152 348.4773 16.02711732    14"
                    ]
                },
                {
                    "noradId": "68288",
                    "tle": [
                        "1 68288C 26055AC  26085.95465278 -.00891410  00000+0 -15253-2 0   855",
                        "2 68288  53.1588 251.1992 0000741  62.5949  34.1048 16.02214116    15"
                    ]
                },
                {
                    "noradId": "68286",
                    "tle": [
                        "1 68286C 26055AA  26085.85534722 -.00896060  00000+0 -15015-2 0   855",
                        "2 68286  53.1597 251.7083 0000610  75.0326 171.2012 16.02572611    14"
                    ]
                },
                {
                    "noradId": "68282",
                    "tle": [
                        "1 68282C 26055W   26085.95326389 -.00882180  00000+0 -15728-2 0   859",
                        "2 68282  53.1590 251.2311 0000619  65.4686  11.5061 16.01505889    15"
                    ]
                },
                {
                    "noradId": "68285",
                    "tle": [
                        "1 68285C 26055Z   26085.86437500 -.00898500  00000+0 -15361-2 0   856",
                        "2 68285  53.1589 251.6710 0000583  69.9722 223.2639 16.02232962    16"
                    ]
                },
                {
                    "noradId": "68283",
                    "tle": [
                        "1 68283C 26055X   26085.94631944 -.00868760  00000+0 -15234-2 0   855",
                        "2 68283  53.1589 251.2574 0000594  64.2028 337.2732 16.01783646    16"
                    ]
                },
                {
                    "noradId": "68280",
                    "tle": [
                        "1 68280C 26055U   26085.89284722 -.00872720  00000+0 -15606-2 0   858",
                        "2 68280  53.1593 251.5482 0000612  76.9922   8.7705 16.01449769    18"
                    ]
                },
                {
                    "noradId": "68276",
                    "tle": [
                        "1 68276C 26055Q   26085.84423611 -.00923280  00000+0 -17015-2 0   854",
                        "2 68276  53.1594 251.8204 0000801  62.6444  92.4244 16.00954910    16"
                    ]
                },
                {
                    "noradId": "68278",
                    "tle": [
                        "1 68278C 26055S   26085.88173611 -.00899600  00000+0 -16355-2 0   856",
                        "2 68278  53.1593 251.6168 0000552  70.3719 306.1309 16.01177559    12"
                    ]
                },
                {
                    "noradId": "68279",
                    "tle": [
                        "1 68279C 26055T   26085.84423611 -.00924310  00000+0 -16870-2 0   850",
                        "2 68279  53.1594 251.8150 0000749  65.3868  92.4988 16.01122320    18"
                    ]
                },
                {
                    "noradId": "68277",
                    "tle": [
                        "1 68277C 26055R   26085.99076389 -.00918230  00000+0 -16755-2 0   856",
                        "2 68277  53.1589 251.0483 0000495  70.5821 217.0783 16.01123743    14"
                    ]
                },
                {
                    "noradId": "68275",
                    "tle": [
                        "1 68275C 26055P   26085.96854167 -.00888590  00000+0 -16759-2 0   858",
                        "2 68275  53.1591 251.1849 0000754  64.3233  84.5440 16.00534948    17"
                    ]
                },
                {
                    "noradId": "68274",
                    "tle": [
                        "1 68274C 26055N   26085.85326389 -.00905490  00000+0 -16983-2 0   853",
                        "2 68274  53.1593 251.7840 0000785  63.3275 138.8665 16.00640225    12"
                    ]
                },
                {
                    "noradId": "68273",
                    "tle": [
                        "1 68273C 26055M   26085.94423611 -.00896740  00000+0 -17120-2 0   859",
                        "2 68273  53.1590 251.3194 0000736  51.4320 312.7731 16.00326742    13"
                    ]
                },
                {
                    "noradId": "68272",
                    "tle": [
                        "1 68272C 26055L   26085.96159722 -.00890290  00000+0 -17147-2 0   852",
                        "2 68272  53.1590 251.2348 0000653  61.7363  40.4036 16.00169775    15"
                    ]
                },
                {
                    "noradId": "68271",
                    "tle": [
                        "1 68271C 26055K   26085.94284722 -.00885360  00000+0 -17324-2 0   857",
                        "2 68271  53.1590 251.3434 0000658  62.0527 286.3887 15.99890060    12"
                    ]
                },
                {
                    "noradId": "68267",
                    "tle": [
                        "1 68267C 26055F   26085.85118056 -.00896610  00000+0 -17838-2 0   858",
                        "2 68267  53.1595 251.8367 0000857  62.1776 107.9230 15.99602717    10"
                    ]
                },
                {
                    "noradId": "68270",
                    "tle": [
                        "1 68270C 26055J   26085.86993056 -.00914710  00000+0 -17622-2 0   857",
                        "2 68270  53.1594 251.7138 0000622  59.3967 231.2582 16.00177230    19"
                    ]
                },
                {
                    "noradId": "68265",
                    "tle": [
                        "1 68265C 26055D   26085.97409722 -.00879740  00000+0 -18145-2 0   859",
                        "2 68265  53.1589 251.2200 0000701  59.4768  90.9832 15.98955549    11"
                    ]
                },
                {
                    "noradId": "68268",
                    "tle": [
                        "1 68268C 26055G   26085.86923611 -.00892460  00000+0 -17664-2 0   857",
                        "2 68268  53.1593 251.7393 0000736  61.7547 214.6328 15.99691974    11"
                    ]
                },
                {
                    "noradId": "68263",
                    "tle": [
                        "1 68263C 26055B   26085.90951389 -.00859810  00000+0 -17744-2 0   851",
                        "2 68263  53.1591 251.5578 0000807  61.9217  74.1791 15.98935576    13"
                    ]
                },
                {
                    "noradId": "68264",
                    "tle": [
                        "1 68264C 26055C   26085.89284722 -.00871620  00000+0 -17709-2 0   854",
                        "2 68264  53.1591 251.6334 0000698  56.3791 348.3322 15.99219128    13"
                    ]
                },
                {
                    "noradId": "68266",
                    "tle": [
                        "1 68266C 26055E   26085.91437500 -.00861190  00000+0 -17380-2 0   859",
                        "2 68266  53.1590 251.5168 0000756  51.7014 119.9849 15.99332823    14"
                    ]
                },
                {
                    "noradId": "68269",
                    "tle": [
                        "1 68269C 26055H   26085.86090278 -.00886460  00000+0 -17399-2 0   850",
                        "2 68269  53.1594 251.7771 0000819  69.1510 161.6048 15.99835924    12"
                    ]
                },
                {
                    "noradId": "68262",
                    "tle": [
                        "1 68262C 26055A   26085.91854167 -.00838310  00000+0 -17405-2 0   853",
                        "2 68262  53.1591 251.5148 0000729  71.7799 114.4656 15.98817020    13"
                    ]
                }
            ]
        }
    ],
    "config": {}
}